#dP2021  2 19 18  0  0.00000000      96 __u+U ITR00 EXT  IAC
## 2145 496800.00000000   900.00000000 59264 0.7500000000000
+  116   C06C07C08C09C10C11C12C13C14C16C19C20C21C22C23C24C25
+        C26C27C28C29C30C32C33C34C35C36C37C38C39C40C41C42C43
+        C44C45C46E01E02E03E04E05E07E08E09E11E12E13E14E15E18
+        E19E21E24E25E26E27E30E31E33E36G01G02G03G04G05G06G07
+        G08G09G10G11G13G14G15G16G17G18G19G20G21G22G23G24G25
+        G26G27G28G29G30G31G32J01J02J03R01R02R03R04R05R07R08
+        R09R11R12R13R14R15R16R17R18R19R20R21R22R24  0  0  0
++        10 10 11 11  9  8 10 11  9 10 11  9  9 11 10 10 10
++         8  8  9  8 10  9 10 10  9  9 10 10  8 10  9  8 10
++         8  9 10  8  7  9  8  8  8  8  9  9  9  8  9  8  7
++         8  7  7  7  7  9  9  7  8  8  7  8  7  7  7  7  8
++         7  8  8  9  7  8  9  9  8  8  8  8  9  7  7  7  7
++         7  7  7  8  8  8  7  9 11  9  9  9  8  8  8  9  8
++         8  9  8  9  8  8 10  9  9  8  8  8  8  8  0  0  0
%c M  cc GPS ccc cccc cccc cccc cccc ccccc ccccc ccccc ccccc
%c cc cc ccc ccc cccc cccc cccc cccc ccccc ccccc ccccc ccccc
%f  0.0000000  0.000000000  0.00000000000  0.000000000000000
%f  0.0000000  0.000000000  0.00000000000  0.000000000000000
%i    0    0    0    0      0      0      0      0         0
%i    0    0    0    0      0      0      0      0         0
/* IAC                                ULTRA-RAPID PREDICTION
/* S/V CLOCKS ARE ALIGNED TO GNSS TIME                      
/* G:C1WC2W R:C1PC2P E:C1XC5X C:C2IC6I J:C1CC2S             
/* PCV:IGS14_2134 OL/AL:FES2004  NONE     YN ORB:CoN CLK:CoN
*  2021 02 20 11 15  0.00000000
PC06  -7553.405299  24795.312586 -32715.454553    108.455215
PC07 -23109.441171  28452.866726  20633.196346   -344.928085
PC08 -13806.458472  38197.882893  12111.707228   -910.964153
PC09   6402.714079  32014.818886 -26158.603697    720.276192
PC10  -9398.339723  29516.991042  28631.331812    -83.419178
PC11  20715.554698  17102.645592  -7560.076390   -912.273536
PC12  11365.909102  23462.371805  10013.770755    811.279795
PC13  -4741.538436  41950.455275  -2452.347950    149.454226
PC14  22306.032239   6500.781188 -15469.847896    180.417171
PC16  -4597.071349  26119.864575 -32653.144357   -703.413163
PC19 -26882.497381    141.803476   7487.786877    734.718607
PC20 -15358.313031 -11294.374016  20386.858947   -917.812263
PC21  -5900.193972  16501.074889 -21694.491478   -847.428386
PC22 -23128.690955  11805.367984 -10181.708892   -886.783760
PC23  16288.128543 -18654.013593  12853.887062   -875.928636
PC24   7013.418665  19772.074162  18402.653048   -764.632910
PC25  16798.742736   -336.435260  22269.653961   -940.126901
PC26  -5246.055723  27030.469991   4647.654214    945.835655
PC27  -2867.862787 -21803.234009 -17206.588648    486.420692
PC28  13238.669099  -8842.189714 -22913.423925   -107.290234
PC29 -21869.302889  -8400.121646  15164.931207    354.947547
PC30 -17780.799039 -21443.645865  -1887.301757    446.430329
PC32   5800.704918 -16577.325184  21703.839712   -897.774516
PC33  26882.186559   -256.985061  -7507.108194   -957.937762
PC34  18073.804464  21207.591918   1215.690870   -735.764647
PC35 -13225.100079   9042.061902  22850.150822   -409.216655
PC36 -16716.085320   -400.034778 -22324.586801   -752.816452
PC37   6432.983651 -26865.173308  -3854.814481   -866.916623
PC38 -12544.866198  39234.383003   9313.432100    131.211388
PC39  -2538.702548  26517.071932 -32648.274407     28.630046
PC40 -16918.703002  24832.143155  29532.395048    133.446192
PC41  23240.895590 -11808.136020   9995.747887   -929.852498
PC42  14756.340911  11624.468587 -20596.282895   -882.207931
PC43  21935.030170   8853.463852 -14787.137015   -606.343441
PC44   3307.349548  21650.474107  17268.189698     48.262767
PC45 -16166.358003  18789.399013 -12848.138355    367.154006
PC46  -7590.706515 -18982.221522 -18976.959493    396.722629
PE01  11538.487507  11811.186667  24563.591689  -1050.076810
PE02 -11662.942564 -11694.921574 -24568.773625    199.771156
PE03 -22606.047591 -15015.439413  11803.339215   -400.721709
PE04  28712.385445   3393.527504   6345.966213   -713.685896
PE05  -3143.076439 -17996.683104  23290.361886   -303.030192
PE07 -17957.621677  10449.107157 -21076.223509   -503.279090
PE08 -28674.789736  -3062.685460  -6651.693091   6044.203042
PE09  17747.322039 -10508.783353  21238.467042   5759.203814
PE11   9780.885001 -17933.159084 -21428.619617   6296.844015
PE12  17164.639998   3960.240277 -23775.409814   5346.819922
PE13  -9908.515246  17541.975632  21693.743935    412.393865
PE14  18687.324724 -11743.058418 -23984.202391  -1336.407121
PE15 -17117.953214  -3901.935844  23846.115687    828.379883
PE18 -11589.135110   9933.153286  17701.729969  -1460.994742
PE19  20920.185621  15822.097900 -13710.092100    208.485979
PE21  -6199.831438  22801.825667  17828.214530   -649.499757
PE24  21326.613800 -20503.556115     97.641827   -753.600931
PE25   6351.632058 -22842.203337 -17713.668516   -526.831000
PE26   3412.850538  28770.675465   6072.332710   2126.644764
PE27 -20944.874806  20921.751979    526.838466     25.941880
PE30 -23142.094645   5894.414708 -17515.154905   3166.131665
PE31  23283.395590  -6745.673160  16984.128357   -478.464665
PE33  14235.483495  23023.987885 -11950.598082   -465.857753
PE36  -3132.127410 -28647.980048  -6766.554284    438.121414
PG01 -13380.637382   9589.302049  20516.768263    757.350930
PG02  13352.471737  15142.231271 -16585.406155   -578.776756
PG03 -23059.746609  12890.081588   2038.555130    -88.020273
PG04 -20143.244396   2357.104488 -17172.126243   -181.497886
PG05  20192.717541   1175.723424 -17460.800354    -34.206125
PG06   6002.017089  24699.416997  -7545.409109     -2.232804
PG07  -7225.739089  22582.817181 -11115.074291     65.209167
PG08 -23856.906396  -3099.232777  11584.821327    -10.991914
PG09  -9923.566916  12104.272899 -21519.532925   -324.613667
PG10   2525.762786 -17655.793751  19702.948906    -65.489706
PG11 -16540.128817   2389.562557  20141.432969    -19.420066
PG13  22916.075487  12986.506073   3765.657068     99.343390
PG14  -4989.498750  18053.754566  18817.463397     97.971151
PG15  24131.437630    462.257820  11118.023352   -168.147298
PG16 -18831.946124  -4539.657903 -18614.403285   -282.915841
PG17   7288.554348  18469.570790  18072.123135    397.370012
PG18   5594.784584 -24423.387325  -8729.333707    348.091510
PG19  14693.086433  18902.559515  11315.526267    -36.039779
PG20  12567.719455 -20759.193001  10418.650445    524.605448
PG21 -15672.915813    750.090099  22175.535443     97.137910
PG22 -22974.127465   7447.141338  11051.343072   -675.577709
PG23  13223.380804 -19295.668019  12520.674074    118.403942
PG24  15217.295705  -4130.760049  21104.925334      2.092429
PG25  18388.832532 -17622.995966  -7260.142893     84.236767
PG26 -10258.402588 -11871.510084 -21494.210589     47.590372
PG27 -23580.484917 -12655.964464   -372.642466    -79.945950
PG28  -2417.266683  17079.524256  20809.195030    612.882360
PG29  10535.889772 -10634.886521 -21983.473273   -298.400112
PG30    386.557878  26434.620791     84.037690   -387.558433
PG31  -7534.976926 -23112.341923 -10205.266597   -101.207547
PG32  -9636.980355 -18314.345600  16839.357293     19.343880
PJ01 -32742.269643  17028.901573 -15700.617063   -342.287705
PJ02 -28171.539610  30986.748075   -387.380000      2.159080
PJ03 -25600.939291  22811.428214  29626.421921     -0.906073
PR01  -3155.194309  11063.872932 -22763.437802     75.289011
PR02  18432.136291   7442.681774 -15907.193972    467.792432
PR03  25474.391340   -413.932474    385.773069     31.110235
PR04  18051.738575  -7768.498741  16284.344860     74.744797
PR05    556.218861 -10822.272319  23101.820925     66.823674
PR07 -25507.150181    635.010750   -905.959364    -42.473701
PR08 -18076.728506   7823.649648 -16165.709500    -57.495910
PR09  -6451.374489 -10892.151915 -22142.692814    -20.809595
PR11 -14329.947193  20122.912438  -6334.445405      3.100997
PR12  -5960.648774  21955.232919  11584.943482    206.543862
PR13   5947.112009  11159.869781  22132.040505    -50.977254
PR14  14664.773717  -6676.174442  19783.231034     61.209933
PR15  14574.156391 -20065.713459   5969.769885    105.306160
PR16   4729.002252 -21743.803599 -12374.355373    -11.549610
PR17  14507.010829   6998.073903 -19777.562333    401.683176
PR18   6326.404412  -9517.839446 -22791.601693     67.287125
PR19  -4100.913218 -20743.409283 -14263.635515   -132.772999
PR20 -13905.029993 -20792.852804   5138.428552   -433.765483
PR21 -14075.009899  -5916.686644  20433.008027   -189.044836
PR22  -5712.620626  10339.468899  22584.552222    -98.841608
PR24  14441.879499  20224.340866  -5747.612542     32.262267
EOF
